STARLINK-37577          
1 69452U 26127K   26183.56038830  .00148369  00000+0  95286-3 0  9990
2 69452  53.1589 185.5858 0001466 141.9532 218.1592 15.75294288  3834
STARLINK-37500          
1 69453U 26127L   26182.74498827  .00242862  00000+0  15387-2 0  9992
2 69453  53.1567 189.7477 0001909  82.6122 277.5115 15.75308584  3703
STARLINK-37575          
1 69454U 26127M   26183.55618469  .00191432  00000+0  12225-2 0  9993
2 69454  53.1594 185.5583 0001547  66.5930 293.5253 15.75283140  3837
STARLINK-37642          
1 69455U 26127N   26183.57433311  .00196634  00000+0  12534-2 0  9999
2 69455  53.1561 185.6774 0001012  94.5736 265.5400 15.75311187  3833
STARLINK-37513          
1 69456U 26127P   26183.46157442  .00213986  00000+0  10571-2 0  9995
2 69456  53.1565 185.6638 0000960 124.2271 235.8843 15.80954476  3823
STARLINK-37563          
1 69457U 26127Q   26183.30660843  .08442893  00000+0  37159-1 0  9992
2 69457  53.1588 186.8467 0012848 297.2409  62.7304 15.78985513  3792
STARLINK-37565          
1 69458U 26127R   26183.48786749  .00176522  00000+0  11290-2 0  9990
2 69458  53.1582 185.8387 0001394  97.6942 262.4237 15.75295799  3820
STARLINK-37498          
1 69459U 26127S   26183.56946947  .00151278  00000+0  97117-3 0  9992
2 69459  53.1564 185.6441 0001672 104.2356 255.8850 15.75293002  3836
STARLINK-37384          
1 69460U 26127T   26183.49240473  .00181812  00000+0  11616-2 0  9993
2 69460  53.1592 185.8697 0001189 125.6835 234.4296 15.75304734  3827
STARLINK-37707          
1 69461U 26127U   26183.48819564  .00219133  00000+0  13932-2 0  9997
2 69461  53.1588 185.8402 0001668 123.1317 236.9863 15.75300604  3826
STARLINK-37525          
1 69462U 26127V   26183.54677571  .00170935  00000+0  10940-2 0  9997
2 69462  53.1578 185.4923 0001086  63.8913 296.2219 15.75298968  3830
STARLINK-37526          
1 69463U 26127W   26183.47912049  .00179125  00000+0  11457-2 0  9996
2 69463  53.1571 185.7800 0001228 115.8813 244.2334 15.75286618  3825
STARLINK-37574          
1 69464U 26127X   26183.48365529  .00149574  00000+0  96070-3 0  9993
2 69464  53.1576 185.8085 0000821 108.6759 251.4350 15.75287805  3821
STARLINK-37535          
1 69465U 26127Y   26183.47878877  .00137898  00000+0  88709-3 0  9994
2 69465  53.1569 185.7758 0001622 108.9546 251.1650 15.75291901  3829
STARLINK-37583          
1 69466U 26127Z   26183.70566691  .00197314  00000+0  12578-2 0  9998
2 69466  53.1589 184.3352 0000754 100.8445 259.2660 15.75306529  3868
STARLINK-37546          
1 69467U 26127AA  26183.72836149  .00181296  00000+0  11580-2 0  9993
2 69467  53.1568 184.4842 0001318  92.1851 267.9320 15.75310536  3864
STARLINK-37532          
1 69468U 26127AB  26183.66668980 -.00075653  00000+0 -49332-3 0  9991
2 69468  53.1591 184.3695 0000956  88.1578 128.0573 15.75259701  5139
STARLINK-37708          
1 69469U 26127AC  26183.72803208  .00178807  00000+0  11425-2 0  9997
2 69469  53.1568 184.4811 0001064  90.2048 269.9094 15.75311770  3868
STARLINK-37686          
1 69470U 26127AD  26183.59692808  .00107881  00000+0  69776-3 0  9993
2 69470  53.1580 185.0840 0000901 108.8842 251.2276 15.75279102  3846
STARLINK-37451          
1 69471U 26127AE  26183.55538068  .00214869  00000+0  10606-2 0  9999
2 69471  53.1567 184.8091 0001657  41.1923 318.9225 15.80968349  3844
DTC TEST OBJECT A       
1 69472U 26128A   26183.51979234  .00015815  00000+0  25324-3 0  9995
2 69472  55.0004 234.1888 0010119 337.3377  22.7209 15.53302700  3611
DTC TEST OBJECT B       
1 69473U 26128B   26178.37654890  .00024134  00000+0  33565-3 0  9992
2 69473  55.0021 257.9040 0009934 325.3113  34.7274 15.56860342  2801
TJS-25                  
1 69474U 26129A   26183.76091179 -.00000357  00000+0  00000+0 0  9994
2 69474   5.9678 330.2823 0002479 287.7401  56.9568  1.00270336   213
STARLINK-37816          
1 69478U 26131A   26183.50745245  .00280322  00000+0  14098-2 0  9999
2 69478  97.2822 204.6736 0000486  64.4524 295.6795 15.80936970  4585
STARLINK-37878          
1 69479U 26131B   26183.63966994  .00304185  00000+0  15216-2 0  9997
2 69479  97.2834 204.8013 0001514  64.3000 295.8424 15.80994710  4600
STARLINK-37817          
1 69480U 26131C   26183.66668980  .00040756  00000+0  21289-3 0  9995
2 69480  97.2834 204.8472 0001807 101.2192  93.1313 15.80776829  4491
STARLINK-37727          
1 69481U 26131D   26183.25199778  .00280416  00000+0  14159-2 0  9991
2 69481  97.2851 204.4092 0001685  77.9216 282.2241 15.80850172  4546
STARLINK-37814          
1 69482U 26131E   26183.66668980 -.00017502  00000+0 -90663-4 0  9995
2 69482  97.2836 204.8510 0001403  98.0666 104.7612 15.80852646  4492
STARLINK-37869          
1 69483U 26131F   26183.50369591  .00497195  00000+0  24291-2 0  9995
2 69483  97.2823 204.6788 0001057  27.9484 332.1841 15.81015317  4586
STARLINK-37873          
1 69484U 26131G   26183.69298889  .00710289  00000+0  33996-2 0  9991
2 69484  97.2836 204.8800 0001079 123.6171 236.5200 15.80917018  4617
